OBJECT_NAME,OBJECT_ID,EPOCH,MEAN_MOTION,ECCENTRICITY,INCLINATION,RA_OF_ASC_NODE,ARG_OF_PERICENTER,MEAN_ANOMALY,EPHEMERIS_TYPE,CLASSIFICATION_TYPE,NORAD_CAT_ID,ELEMENT_SET_NO,REV_AT_EPOCH,BSTAR,MEAN_MOTION_DOT,MEAN_MOTION_DDOT
SAUDISAT 1C (SO-50),2002-058C,2026-07-03T19:27:41.631264,14.83081688,.00748507,64.5520,77.5517,259.3699,99.8971,0,U,27607,999,26692,.14144784E-3,.1055E-4,0
SAUDISAT 2,2004-025F,2026-07-04T06:28:41.048256,14.56693820,.00235565,98.5512,185.6936,243.0600,116.8191,0,U,28371,999,16823,.7954649E-4,.307E-5,0
SAUDISAT 3,2007-012B,2026-07-04T02:57:23.638464,14.71435564,.001482,98.1462,135.5356,168.4720,191.6829,0,U,31118,999,3023,.61743289E-4,.332E-5,0
PISAT,2016-059B,2026-07-04T05:46:52.536576,14.69015024,.002977,97.8183,184.9611,148.4688,211.8310,0,U,41784,999,52224,.21075266E-3,.1197E-4,0
FLYING LAPTOP,2017-042G,2026-07-04T07:34:56.543808,15.01255339,.00199663,97.4771,340.1975,67.1205,293.2125,0,U,42831,999,48902,.25096855E-3,.318E-4,0
SALSAT,2020-068K,2026-07-03T22:54:35.117568,15.30040776,.00081593,97.8853,189.0427,236.6445,123.4014,0,U,46495,999,31792,.32069255E-3,.9251E-4,0
